ONEWEB-0674             
1 55833U 23029AP  25343.95177070  .00000256  00000+0  65645-3 0  9994
2 55833  87.8984 327.4349 0002165  94.5985 265.5393 13.14503332134552
ONEWEB-0675             
1 55834U 23029AQ  25344.04434205  .00000047  00000+0  83922-4 0  9999
2 55834  87.9187 342.6236 0001526  84.2586 275.8720 13.19724144133970
ONEWEB-0720             
1 55835U 23029AR  25344.26389553  .00000073  00000+0  14943-3 0  9994
2 55835  87.9192 342.5778 0002089  81.4093 278.7276 13.19725078133924
ONEWEB-0537             
1 56046U 23043A   25344.26615736  .00000032  00000+0  49803-4 0  9999
2 56046  87.9049 266.3890 0001493  72.7174 287.4120 13.16594934134107
ONEWEB-0538             
1 56047U 23043B   25344.18382187  .00000046  00000+0  87886-4 0  9990
2 56047  87.9042 266.4098 0001664  63.7094 296.4208 13.16595611134103
ONEWEB-0546             
1 56048U 23043C   25344.24716023  .00000162  00000+0  39089-3 0  9998
2 56048  87.9055 266.3884 0001015  79.7348 280.3897 13.16595853134103
ONEWEB-0547             
1 56049U 23043D   25344.31067468  .00000085  00000+0  17311-3 0  9997
2 56049  87.9219 281.6453 0001877  72.9982 287.1357 13.21824705133273
ONEWEB-0548             
1 56050U 23043E   25344.27169063 -.00000010  00000+0 -59581-4 0  9994
2 56050  87.9037 266.3909 0001963  87.4077 272.7279 13.16593971134109
